{
  "norad_id": 62070,
  "name": "STARLINK-32604",
  "history": [
    {
      "epoch": "2026-03-28T11:23:10.536000Z",
      "apogee_km": 476.0183011261306,
      "perigee_km": 474.3105954712446,
      "latitude_deg": -3.752798977732098e-05,
      "longitude_deg": 110.2224191968604,
      "height_km": 476.04878400390885,
      "semi_major_axis_km": 6853.301448298687,
      "eccentricity": 0.00012459,
      "inclination_deg": 53.1593,
      "raan_deg": 106.9107,
      "arg_perigee_deg": 89.08,
      "mean_anomaly_deg": 271.0343,
      "mean_motion_rev_day": 15.30216954
    },
    {
      "epoch": "2026-03-29T04:37:45.883488Z",
      "apogee_km": 476.1883468259275,
      "perigee_km": 474.22006723126924,
      "latitude_deg": -2.2676209907124307e-05,
      "longitude_deg": -152.47160213771102,
      "height_km": 475.23257645249856,
      "semi_major_axis_km": 6853.341207028599,
      "eccentricity": 0.0001436,
      "inclination_deg": 53.1587,
      "raan_deg": 103.5721,
      "arg_perigee_deg": 27.8208,
      "mean_anomaly_deg": 332.2869,
      "mean_motion_rev_day": 15.30203638
    },
    {
      "epoch": "2026-03-29T06:11:48.854976Z",
      "apogee_km": 476.0679312809925,
      "perigee_km": 474.37131431545185,
      "latitude_deg": -2.9255524785591783e-05,
      "longitude_deg": -176.3504628188873,
      "height_km": 476.00969221506784,
      "semi_major_axis_km": 6853.356622798222,
      "eccentricity": 0.00012378,
      "inclination_deg": 53.1587,
      "raan_deg": 103.27,
      "arg_perigee_deg": 82.6905,
      "mean_anomaly_deg": 277.4236,
      "mean_motion_rev_day": 15.30198475
    },
    {
      "epoch": "2026-03-30T10:24:46.677312Z",
      "apogee_km": 476.0952843246996,
      "perigee_km": 474.2855946810241,
      "latitude_deg": 6.502121054527892e-06,
      "longitude_deg": 113.78914582099851,
      "height_km": 476.0591084941603,
      "semi_major_axis_km": 6853.327439502861,
      "eccentricity": 0.00013203,
      "inclination_deg": 53.159,
      "raan_deg": 97.8093,
      "arg_perigee_deg": 88.1486,
      "mean_anomaly_deg": 271.9666,
      "mean_motion_rev_day": 15.30208249
    },
    {
      "epoch": "2026-03-31T06:47:28.187232Z",
      "apogee_km": 476.0633621592169,
      "perigee_km": 474.35276723106836,
      "latitude_deg": 5.801924431646664e-05,
      "longitude_deg": 163.33522443538644,
      "height_km": 475.9501091520447,
      "semi_major_axis_km": 6853.345064695142,
      "eccentricity": 0.0001248,
      "inclination_deg": 53.159,
      "raan_deg": 93.8652,
      "arg_perigee_deg": 79.4924,
      "mean_anomaly_deg": 280.6218,
      "mean_motion_rev_day": 15.30202346
    },
    {
      "epoch": "2026-04-01T17:16:38.618688Z",
      "apogee_km": 476.25124040971605,
      "perigee_km": 474.1171161947923,
      "latitude_deg": 2.678121956510355e-05,
      "longitude_deg": -2.0514605249261204,
      "height_km": 476.00579642698204,
      "semi_major_axis_km": 6853.321178302253,
      "eccentricity": 0.0001557,
      "inclination_deg": 53.1598,
      "raan_deg": 87.1883,
      "arg_perigee_deg": 85.9134,
      "mean_anomaly_deg": 274.2045,
      "mean_motion_rev_day": 15.30210346
    },
    {
      "epoch": "2026-04-02T16:47:26.330784Z",
      "apogee_km": 476.11179105428437,
      "perigee_km": 474.218908945214,
      "latitude_deg": 1.0130865168638963e-05,
      "longitude_deg": -0.2670274988087403,
      "height_km": 476.03078656768446,
      "semi_major_axis_km": 6853.302349999749,
      "eccentricity": 0.0001381,
      "inclination_deg": 53.1598,
      "raan_deg": 82.6372,
      "arg_perigee_deg": 88.0339,
      "mean_anomaly_deg": 272.082,
      "mean_motion_rev_day": 15.30216652
    },
    {
      "epoch": "2026-04-02T23:03:38.836224Z",
      "apogee_km": 476.10734521819995,
      "perigee_km": 474.1655387211522,
      "latitude_deg": 7.661052501129902e-05,
      "longitude_deg": -95.78838930271105,
      "height_km": 475.849266170001,
      "semi_major_axis_km": 6853.273441969675,
      "eccentricity": 0.00014167,
      "inclination_deg": 53.1601,
      "raan_deg": 81.4254,
      "arg_perigee_deg": 79.0096,
      "mean_anomaly_deg": 281.1065,
      "mean_motion_rev_day": 15.30226334
    },
    {
      "epoch": "2026-04-03T05:19:51.639744Z",
      "apogee_km": 476.0922359242504,
      "perigee_km": 474.1785281442917,
      "latitude_deg": 1.2209931636989537e-05,
      "longitude_deg": 168.68620581031524,
      "height_km": 475.8886538994331,
      "semi_major_axis_km": 6853.272382034271,
      "eccentricity": 0.00013962,
      "inclination_deg": 53.1601,
      "raan_deg": 80.2109,
      "arg_perigee_deg": 81.3037,
      "mean_anomaly_deg": 278.8122,
      "mean_motion_rev_day": 15.30226689
    },
    {
      "epoch": "2026-04-04T06:24:43.691040Z",
      "apogee_km": 476.0783038705267,
      "perigee_km": 474.36934981474496,
      "latitude_deg": 5.414243459413381e-05,
      "longitude_deg": 146.58511112122852,
      "height_km": 476.009604543628,
      "semi_major_axis_km": 6853.360826842635,
      "eccentricity": 0.00012468,
      "inclination_deg": 53.1605,
      "raan_deg": 75.3567,
      "arg_perigee_deg": 82.4419,
      "mean_anomaly_deg": 277.6724,
      "mean_motion_rev_day": 15.30197067
    },
    {
      "epoch": "2026-04-05T07:29:34.505952Z",
      "apogee_km": 476.0140102612577,
      "perigee_km": 474.4528124815479,
      "latitude_deg": -1.3771901408691514e-05,
      "longitude_deg": 124.4911993545736,
      "height_km": 476.1593068227234,
      "semi_major_axis_km": 6853.370411371403,
      "eccentricity": 0.0001139,
      "inclination_deg": 53.1606,
      "raan_deg": 70.5046,
      "arg_perigee_deg": 92.0246,
      "mean_anomaly_deg": 268.0885,
      "mean_motion_rev_day": 15.30193857
    },
    {
      "epoch": "2026-04-05T15:19:50.565216Z",
      "apogee_km": 476.17991521757995,
      "perigee_km": 474.2157494546327,
      "latitude_deg": -7.446480646781631e-05,
      "longitude_deg": 5.083153178987459,
      "height_km": 476.0875438404249,
      "semi_major_axis_km": 6853.334832336106,
      "eccentricity": 0.0001433,
      "inclination_deg": 53.16,
      "raan_deg": 68.9854,
      "arg_perigee_deg": 89.5244,
      "mean_anomaly_deg": 270.592,
      "mean_motion_rev_day": 15.30205773
    },
    {
      "epoch": "2026-04-06T05:26:19.122144Z",
      "apogee_km": 475.85197854686976,
      "perigee_km": 474.542169338657,
      "latitude_deg": -3.3190489455107635e-05,
      "longitude_deg": 150.1558033216811,
      "height_km": 476.17633717138,
      "semi_major_axis_km": 6853.334073942763,
      "eccentricity": 9.556e-05,
      "inclination_deg": 53.16,
      "raan_deg": 66.2564,
      "arg_perigee_deg": 97.0825,
      "mean_anomaly_deg": 263.0284,
      "mean_motion_rev_day": 15.30206027
    },
    {
      "epoch": "2026-04-07T03:23:03.815232Z",
      "apogee_km": 475.9867156005448,
      "perigee_km": 474.37193720771666,
      "latitude_deg": -6.9104265754420185e-06,
      "longitude_deg": 175.82301952082344,
      "height_km": 476.30966404433747,
      "semi_major_axis_km": 6853.31632640413,
      "eccentricity": 0.00011781,
      "inclination_deg": 53.1598,
      "raan_deg": 62.0111,
      "arg_perigee_deg": 106.7058,
      "mean_anomaly_deg": 253.4072,
      "mean_motion_rev_day": 15.30211971
    }
  ]
}